start=new Date('2021-09-07T00:00:00.000Z').valueOf();
sats=[{"MEAN_MOTION_DOT":"-0.00000265","PERIAPSIS":"545.893","CENTER_NAME":"EARTH","OBJECT_NAME":"STARLINK-1688","MEAN_ELEMENT_THEORY":"SGP4","INCLINATION":"53.0546","ECCENTRICITY":"0.00018850","GP_ID":"184226324","LAUNCH_DATE":"2020-09-03","REV_AT_EPOCH":"5667","RA_OF_ASC_NODE":"180.7368","MEAN_MOTION":"15.06404828","EPOCH":"2021-09-06T19:41:26.099808","SEMIMAJOR_AXIS":"6925.334","DECAY_DATE":null,"EPHEMERIS_TYPE":"0","TLE_LINE1":"1 46371U 20062AY  21249.82044097 -.00000265  00000-0  11006-5 0  9990","COUNTRY_CODE":"US","APOAPSIS":"548.504","TLE_LINE2":"2 46371  53.0546 180.7368 0001885  53.2513 306.8649 15.06404828 56678","ARG_OF_PERICENTER":"53.2513","ELEMENT_SET_NO":"999","NORAD_CAT_ID":"46371","MEAN_MOTION_DDOT":"0.0000000000000","RCS_SIZE":"LARGE","OBJECT_TYPE":"PAYLOAD","TIME_SYSTEM":"UTC","PERIOD":"95.592","CLASSIFICATION_TYPE":"U","REF_FRAME":"TEME","BSTAR":"0.00000110060000","MEAN_ANOMALY":"306.8649","SITE":"AFETR","OBJECT_ID":"2020-062AY","FILE":"3109923"},{"FILE":"3109923","OBJECT_ID":"2020-062AZ","SITE":"AFETR","MEAN_ANOMALY":"295.4052","BSTAR":"0.00008171600000","REF_FRAME":"TEME","PERIOD":"95.592","CLASSIFICATION_TYPE":"U","TIME_SYSTEM":"UTC","OBJECT_TYPE":"PAYLOAD","RCS_SIZE":"LARGE","MEAN_MOTION_DDOT":"0.0000000000000","NORAD_CAT_ID":"46372","ELEMENT_SET_NO":"999","TLE_LINE2":"2 46372  53.0534 200.6888 0001540  64.7097 295.4052 15.06400935 56392","ARG_OF_PERICENTER":"64.7097","APOAPSIS":"548.277","COUNTRY_CODE":"US","EPHEMERIS_TYPE":"0","TLE_LINE1":"1 46372U 20062AZ  21249.82966005  .00000936  00000-0  81716-4 0  9991","DECAY_DATE":null,"SEMIMAJOR_AXIS":"6925.346","EPOCH":"2021-09-06T19:54:42.628320","MEAN_MOTION":"15.06400935","RA_OF_ASC_NODE":"200.6888","REV_AT_EPOCH":"5639","LAUNCH_DATE":"2020-09-03","GP_ID":"184225072","ECCENTRICITY":"0.00015400","INCLINATION":"53.0534","MEAN_ELEMENT_THEORY":"SGP4","OBJECT_NAME":"STARLINK-1689","CENTER_NAME":"EARTH","PERIAPSIS":"546.144","MEAN_MOTION_DOT":"0.00000936"},{"PERIOD":"95.593","CLASSIFICATION_TYPE":"U","REF_FRAME":"TEME","MEAN_MOTION_DDOT":"0.0000000000000","RCS_SIZE":"LARGE","TIME_SYSTEM":"UTC","OBJECT_TYPE":"PAYLOAD","FILE":"3109923","BSTAR":"-0.00001105800000","MEAN_ANOMALY":"148.8221","SITE":"AFETR","OBJECT_ID":"2020-062BB","COUNTRY_CODE":"US","APOAPSIS":"550.276","EPHEMERIS_TYPE":"0","TLE_LINE1":"1 46374U 20062BB  21249.71078534 -.00000447  00000-0 -11058-4 0  9993","NORAD_CAT_ID":"46374","ARG_OF_PERICENTER":"211.2508","TLE_LINE2":"2 46374  53.0544 131.2211 0004381 211.2508 148.8221 15.06390786 57354","ELEMENT_SET_NO":"999","LAUNCH_DATE":"2020-09-03","DECAY_DATE":null,"REV_AT_EPOCH":"5735","RA_OF_ASC_NODE":"131.2211","MEAN_MOTION":"15.06390786","EPOCH":"2021-09-06T17:03:31.853376","SEMIMAJOR_AXIS":"6925.377","CENTER_NAME":"EARTH","PERIAPSIS":"544.208","OBJECT_NAME":"STARLINK-1711","MEAN_MOTION_DOT":"-0.00000447","ECCENTRICITY":"0.00043810","GP_ID":"184224823","MEAN_ELEMENT_THEORY":"SGP4","INCLINATION":"53.0544"},{"LAUNCH_DATE":"2020-09-03","DECAY_DATE":null,"EPOCH":"2021-09-06T18:59:38.221440","SEMIMAJOR_AXIS":"6925.321","REV_AT_EPOCH":"5701","RA_OF_ASC_NODE":"155.8571","MEAN_MOTION":"15.06408901","PERIAPSIS":"545.868","CENTER_NAME":"EARTH","OBJECT_NAME":"STARLINK-1724","MEAN_MOTION_DOT":"-0.00000214","ECCENTRICITY":"0.00019030","GP_ID":"184226074","INCLINATION":"53.0557","MEAN_ELEMENT_THEORY":"SGP4","REF_FRAME":"TEME","CLASSIFICATION_TYPE":"U","PERIOD":"95.592","TIME_SYSTEM":"UTC","OBJECT_TYPE":"PAYLOAD","MEAN_MOTION_DDOT":"0.0000000000000","RCS_SIZE":"LARGE","FILE":"3109923","SITE":"AFETR","OBJECT_ID":"2020-062BC","BSTAR":"0.00000454230000","MEAN_ANOMALY":"290.1060","APOAPSIS":"548.504","COUNTRY_CODE":"US","EPHEMERIS_TYPE":"0","TLE_LINE1":"1 46375U 20062BC  21249.79141460 -.00000214  00000-0  45423-5 0  9996","NORAD_CAT_ID":"46375","TLE_LINE2":"2 46375  53.0557 155.8571 0001903  70.0134 290.1060 15.06408901 57017","ARG_OF_PERICENTER":"70.0134","ELEMENT_SET_NO":"999"},{"MEAN_MOTION":"15.06396728","REV_AT_EPOCH":"5702","RA_OF_ASC_NODE":"155.5021","SEMIMAJOR_AXIS":"6925.359","EPOCH":"2021-09-06T20:56:24.570240","DECAY_DATE":null,"LAUNCH_DATE":"2020-09-03","MEAN_ELEMENT_THEORY":"SGP4","INCLINATION":"53.0552","GP_ID":"184225825","ECCENTRICITY":"0.00019440","MEAN_MOTION_DOT":"-0.00000891","OBJECT_NAME":"STARLINK-1742","CENTER_NAME":"EARTH","PERIAPSIS":"545.877","MEAN_ANOMALY":"285.1476","BSTAR":"-0.00004089500000","OBJECT_ID":"2020-062BD","SITE":"AFETR","FILE":"3109923","RCS_SIZE":"LARGE","MEAN_MOTION_DDOT":"0.0000000000000","TIME_SYSTEM":"UTC","OBJECT_TYPE":"PAYLOAD","CLASSIFICATION_TYPE":"U","PERIOD":"95.592","REF_FRAME":"TEME","ELEMENT_SET_NO":"999","TLE_LINE2":"2 46376  53.0552 155.5021 0001944  74.9728 285.1476 15.06396728 57026","ARG_OF_PERICENTER":"74.9728","NORAD_CAT_ID":"46376","EPHEMERIS_TYPE":"0","TLE_LINE1":"1 46376U 20062BD  21249.87250660 -.00000891  00000-0 -40895-4 0  9998","COUNTRY_CODE":"US","APOAPSIS":"548.570"},{"INCLINATION":"53.0554","MEAN_ELEMENT_THEORY":"SGP4","ECCENTRICITY":"0.00018210","GP_ID":"184196398","MEAN_MOTION_DOT":"-0.00002401","PERIAPSIS":"545.970","CENTER_NAME":"EARTH","OBJECT_NAME":"STARLINK-1751","EPOCH":"2021-09-06T11:39:06.178752","SEMIMAJOR_AXIS":"6925.367","RA_OF_ASC_NODE":"157.2366","REV_AT_EPOCH":"5696","MEAN_MOTION":"15.06394126","DECAY_DATE":null,"LAUNCH_DATE":"2020-09-03","TLE_LINE2":"2 46378  53.0554 157.2366 0001821  75.3130 284.8061 15.06394126 56965","ARG_OF_PERICENTER":"75.3130","ELEMENT_SET_NO":"999","NORAD_CAT_ID":"46378","EPHEMERIS_TYPE":"0","TLE_LINE1":"1 46378U 20062BF  21249.48548818 -.00002401  00000-0 -14235-3 0  9999","APOAPSIS":"548.493","COUNTRY_CODE":"US","SITE":"AFETR","OBJECT_ID":"2020-062BF","BSTAR":"-0.00014235000000","MEAN_ANOMALY":"284.8061","FILE":"3109699","OBJECT_TYPE":"PAYLOAD","TIME_SYSTEM":"UTC","MEAN_MOTION_DDOT":"0.0000000000000","RCS_SIZE":"LARGE","REF_FRAME":"TEME","PERIOD":"95.593","CLASSIFICATION_TYPE":"U"},{"DECAY_DATE":null,"EPOCH":"2021-09-06T20:41:54.967200","SEMIMAJOR_AXIS":"6700.197","RA_OF_ASC_NODE":"55.1386","REV_AT_EPOCH":"5842","MEAN_MOTION":"15.82965494","LAUNCH_DATE":"2020-09-03","ECCENTRICITY":"0.00031480","GP_ID":"184225323","INCLINATION":"53.0332","MEAN_ELEMENT_THEORY":"SGP4","CENTER_NAME":"EARTH","PERIAPSIS":"319.952","OBJECT_NAME":"STARLINK-1756","MEAN_MOTION_DOT":"0.00111883","FILE":"3109923","SITE":"AFETR","OBJECT_ID":"2020-062BG","BSTAR":"0.00051073000000","MEAN_ANOMALY":"226.1208","REF_FRAME":"TEME","PERIOD":"90.969","CLASSIFICATION_TYPE":"U","TIME_SYSTEM":"UTC","OBJECT_TYPE":"PAYLOAD","RCS_SIZE":"LARGE","MEAN_MOTION_DDOT":"0.0000000000000","NORAD_CAT_ID":"46379","TLE_LINE2":"2 46379  53.0332  55.1386 0003148 134.0074 226.1208 15.82965494 58423","ARG_OF_PERICENTER":"134.0074","ELEMENT_SET_NO":"999","APOAPSIS":"324.171","COUNTRY_CODE":"US","EPHEMERIS_TYPE":"0","TLE_LINE1":"1 46379U 20062BG  21249.86244175  .00111883  00000-0  51073-3 0  9995"},{"GP_ID":"184200527","ECCENTRICITY":"0.00018990","MEAN_ELEMENT_THEORY":"SGP4","INCLINATION":"53.0524","OBJECT_NAME":"STARLINK-1758","CENTER_NAME":"EARTH","PERIAPSIS":"545.923","MEAN_MOTION_DOT":"-0.00000209","DECAY_DATE":null,"MEAN_MOTION":"15.06392025","RA_OF_ASC_NODE":"180.6466","REV_AT_EPOCH":"5685","SEMIMAJOR_AXIS":"6925.373","EPOCH":"2021-09-06T20:07:59.064384","LAUNCH_DATE":"2020-09-03","NORAD_CAT_ID":"46380","ELEMENT_SET_NO":"999","TLE_LINE2":"2 46380  53.0524 180.6466 0001899  68.8924 291.2268 15.06392025 56854","ARG_OF_PERICENTER":"68.8924","COUNTRY_CODE":"US","APOAPSIS":"548.553","EPHEMERIS_TYPE":"0","TLE_LINE1":"1 46380U 20062BH  21249.83887806 -.00000209  00000-0  48783-5 0  9994","FILE":"3109774","MEAN_ANOMALY":"291.2268","BSTAR":"0.00000487830000","OBJECT_ID":"2020-062BH","SITE":"AFETR","CLASSIFICATION_TYPE":"U","PERIOD":"95.593","REF_FRAME":"TEME","RCS_SIZE":"LARGE","MEAN_MOTION_DDOT":"0.0000000000000","TIME_SYSTEM":"UTC","OBJECT_TYPE":"PAYLOAD"},{"PERIOD":"90.051","CLASSIFICATION_TYPE":"U","REF_FRAME":"TEME","MEAN_MOTION_DDOT":"0.0005704600000","RCS_SIZE":"LARGE","TIME_SYSTEM":"UTC","OBJECT_TYPE":"PAYLOAD","FILE":"3109923","MEAN_ANOMALY":"101.8067","BSTAR":"0.00216100000000","OBJECT_ID":"2020-062BJ","SITE":"AFETR","COUNTRY_CODE":"US","APOAPSIS":"280.264","TLE_LINE1":"1 46381U 20062BJ  21249.87241650  .01068792  57046-3  21610-2 0  9993","EPHEMERIS_TYPE":"0","NORAD_CAT_ID":"46381","ELEMENT_SET_NO":"999","ARG_OF_PERICENTER":"258.2351","TLE_LINE2":"2 46381  53.0480 100.2416 0004988 258.2351 101.8067 15.99090047 57989","LAUNCH_DATE":"2020-09-03","DECAY_DATE":null,"MEAN_MOTION":"15.99090047","RA_OF_ASC_NODE":"100.2416","REV_AT_EPOCH":"5798","SEMIMAJOR_AXIS":"6655.079","EPOCH":"2021-09-06T20:56:16.785600","OBJECT_NAME":"STARLINK-1768","CENTER_NAME":"EARTH","PERIAPSIS":"273.625","MEAN_MOTION_DOT":"0.01068792","GP_ID":"184226325","ECCENTRICITY":"0.00049880","MEAN_ELEMENT_THEORY":"SGP4","INCLINATION":"53.0480"},{"FILE":"3109923","SITE":"AFETR","OBJECT_ID":"2020-062BK","BSTAR":"0.00000208230000","MEAN_ANOMALY":"282.7691","REF_FRAME":"TEME","PERIOD":"95.592","CLASSIFICATION_TYPE":"U","TIME_SYSTEM":"UTC","OBJECT_TYPE":"PAYLOAD","MEAN_MOTION_DDOT":"0.0000000000000","RCS_SIZE":"LARGE","NORAD_CAT_ID":"46382","ARG_OF_PERICENTER":"77.3519","TLE_LINE2":"2 46382  53.0566 155.7334 0001976  77.3519 282.7691 15.06405731 57024","ELEMENT_SET_NO":"999","APOAPSIS":"548.564","COUNTRY_CODE":"US","EPHEMERIS_TYPE":"0","TLE_LINE1":"1 46382U 20062BK  21249.82090485 -.00000251  00000-0  20823-5 0  9996","DECAY_DATE":null,"EPOCH":"2021-09-06T19:42:06.179040","SEMIMAJOR_AXIS":"6925.331","REV_AT_EPOCH":"5702","RA_OF_ASC_NODE":"155.7334","MEAN_MOTION":"15.06405731","LAUNCH_DATE":"2020-09-03","ECCENTRICITY":"0.00019760","GP_ID":"184225073","INCLINATION":"53.0566","MEAN_ELEMENT_THEORY":"SGP4","CENTER_NAME":"EARTH","PERIAPSIS":"545.828","OBJECT_NAME":"STARLINK-1769","MEAN_MOTION_DOT":"-0.00000251"}];
